MALLIGYONG-1            
1 58400U 23179A   23344.82192381  .00004361  00000+0  19685-3 0  9994
2 58400  97.4269 229.3448 0014831 205.8218 154.2279 15.21421356  2924
